OBJECT_NAME,OBJECT_ID,EPOCH,MEAN_MOTION,ECCENTRICITY,INCLINATION,RA_OF_ASC_NODE,ARG_OF_PERICENTER,MEAN_ANOMALY,EPHEMERIS_TYPE,CLASSIFICATION_TYPE,NORAD_CAT_ID,ELEMENT_SET_NO,REV_AT_EPOCH,BSTAR,MEAN_MOTION_DOT,MEAN_MOTION_DDOT
ONEWEB-0597,2022-166X,2026-07-22T13:29:33.181440,13.21824514,.00018987,87.9228,236.9459,94.5462,265.5888,0,U,54663,999,17621,.4927958E-4,.33E-6,0
ONEWEB-0600,2022-166Y,2026-07-22T13:02:55.167648,13.21825755,.00020021,87.9229,236.9412,100.6544,259.4816,0,U,54664,999,17618,-.13898403E-3,-.44E-6,0
ONEWEB-0601,2022-166Z,2026-07-22T20:06:48.597408,13.21825391,.00017566,87.9226,236.8985,95.8898,264.2437,0,U,54665,999,17641,.77355887E-4,.45E-6,0
ONEWEB-0602,2022-166AA,2026-07-22T19:17:09.071808,13.21824374,.00020052,87.9226,236.9110,101.4867,258.6492,0,U,54666,999,17625,.10661936E-3,.57E-6,0
ONEWEB-0603,2022-166AB,2026-07-22T19:25:37.467552,13.21824147,.00020159,87.9237,236.8707,96.4231,263.7133,0,U,54667,999,17618,.67061704E-4,.41E-6,0
ONEWEB-0604,2022-166AC,2026-07-22T19:08:40.018560,13.21824487,.00021248,87.9238,236.8888,95.8086,264.3291,0,U,54668,999,17614,.47726563E-4,.33E-6,0
ONEWEB-0605,2022-166AD,2026-07-22T02:37:57.111456,13.21824507,.00017017,87.9226,237.0356,79.9841,280.1485,0,U,54669,999,17612,.23806197E-4,.23E-6,0
ONEWEB-0606,2022-166AE,2026-07-22T19:30:27.869184,13.21825699,.00021951,87.9228,236.9085,97.7154,262.4229,0,U,54670,999,17627,.17004863E-3,.83E-6,0
ONEWEB-0607,2022-166AF,2026-07-22T07:48:01.154304,13.21825862,.00019295,87.9236,236.9793,97.0269,263.1085,0,U,54671,999,17618,-.19563858E-3,-.68E-6,0
ONEWEB-0608,2022-166AG,2026-07-22T07:57:41.357088,13.21824365,.00015327,87.9241,236.9756,88.2580,271.8730,0,U,54672,999,17619,.37588863E-4,.29E-6,0
ONEWEB-0610,2022-166AH,2026-07-22T12:55:38.945280,13.21825880,.00014366,87.9225,236.9445,98.7647,261.3650,0,U,54673,999,17612,.10963284E-4,.18E-6,0
ONEWEB-0611,2022-166AJ,2026-07-22T03:40:54.786432,13.21824308,.00022167,87.9228,237.0174,96.9422,263.1964,0,U,54674,999,17606,-.60873117E-4,-.12E-6,0
ONEWEB-0612,2022-166AK,2026-07-22T13:05:19.267296,13.21826536,.00019013,87.9237,236.9384,94.2930,265.8422,0,U,54675,999,17610,-.1109693E-3,-.33E-6,0
ONEWEB-0615,2022-166AL,2026-07-22T19:52:16.233024,13.21823801,.00022882,87.9226,236.8939,98.7225,261.4168,0,U,54676,999,17615,.12255818E-3,.64E-6,0
ONEWEB-0655,2022-166AM,2026-07-22T02:57:20.185056,13.21823985,.0001962,87.9229,237.0351,100.9891,259.1464,0,U,54677,999,17605,.82953168E-4,.47E-6,0
ONEWEB-0659,2022-166AN,2026-07-22T12:26:34.533600,13.21824907,.00020181,87.9227,236.9557,93.0113,267.1252,0,U,54678,999,17619,.31384914E-3,.143E-5,0
ONEWEB-0685,2022-166AP,2026-07-22T20:00:01.999872,13.22703159,.00042885,87.9229,236.8839,85.2119,340.3119,0,U,54679,999,519,.48725955E-1,.20448E-3,0
ONEWEB-0712,2022-166AQ,2026-07-22T11:23:24.054144,13.16594449,.0001949,87.9078,221.7653,106.5213,253.6132,0,U,54680,999,17670,-.58018526E-3,-.209E-5,0
ONEWEB-0714,2022-166AR,2026-07-22T19:49:51.739392,13.21825548,.00021372,87.9225,236.8841,103.4114,256.7258,0,U,54681,999,17624,.69161086E-4,.42E-6,0
ONEWEB-0532,2023-004A,2026-07-22T20:59:06.434592,13.17648823,.00018193,87.9155,358.7653,84.1690,275.9649,0,U,55140,999,17228,.9269933E-4,.49E-6,0
ONEWEB-0533,2023-004B,2026-07-22T19:57:17.973792,13.12443226,.00016514,87.8974,343.5843,99.0045,261.1271,0,U,55141,999,17273,.89213693E-3,.334E-5,0
ONEWEB-0541,2023-004C,2026-07-22T10:21:13.508640,13.11417664,.00019604,87.8897,14.0428,88.5318,271.6034,0,U,55142,999,17056,-.125187E-2,-.431E-5,0
ONEWEB-0543,2023-004D,2026-07-22T07:04:20.825472,13.18687334,.00019676,87.9194,328.4876,105.7643,254.3706,0,U,55143,999,17432,.16323999E-3,.77E-6,0
ONEWEB-0544,2023-004E,2026-07-22T17:50:12.746976,13.18684780,.00021042,87.9196,328.3982,101.4541,258.6828,0,U,55144,999,17438,-.49184822E-4,-.6E-7,0
ONEWEB-0560,2023-004F,2026-07-22T17:40:30.576864,13.18686216,.00021283,87.9194,328.3890,103.5176,256.6194,0,U,55145,999,17439,-.62611047E-4,-.12E-6,0
ONEWEB-0565,2023-004G,2026-07-22T08:24:29.181600,13.18685241,.00022226,87.9185,328.4900,90.8514,269.2873,0,U,55146,999,17433,.23678902E-4,.22E-6,0
ONEWEB-0567,2023-004H,2026-07-22T19:10:20.117280,13.18684498,.0002244,87.9194,328.3884,96.5910,263.5478,0,U,55147,999,17439,-.13624523E-4,.8E-7,0
ONEWEB-0569,2023-004J,2026-07-22T17:39:00.821952,13.13471016,.00028008,87.8990,313.1493,106.1511,253.9927,0,U,55148,999,17484,-.20130434E-3,-.61E-6,0
ONEWEB-0570,2023-004K,2026-07-22T08:02:37.646880,13.18685201,.00018926,87.9194,328.4779,85.6944,274.4405,0,U,55149,999,17432,.11778548E-3,.59E-6,0
ONEWEB-0571,2023-004L,2026-07-22T18:48:30.351168,13.18685709,.00031423,87.9193,328.3884,93.6372,266.5120,0,U,55150,999,17439,-.89262553E-4,-.22E-6,0
