{"epoch":1784799577,"count":18318,"objects":[{"id":"54663","name":"ONEWEB-0597","type":"PAYLOAD","l1":"1 54663U 22166X   26203.56218960  .00000033  00000-0  49280-4 0  9994","l2":"2 54663  87.9228 236.9459 0001899  94.5462 265.5888 13.21824514176217"},{"id":"54664","name":"ONEWEB-0600","type":"PAYLOAD","l1":"1 54664U 22166Y   26203.54369407 -.00000044  00000-0 -13898-3 0  9995","l2":"2 54664  87.9229 236.9412 0002002 100.6544 259.4816 13.21825755176182"},{"id":"54665","name":"ONEWEB-0601","type":"PAYLOAD","l1":"1 54665U 22166Z   26203.83806247  .00000045  00000-0  77356-4 0  9995","l2":"2 54665  87.9226 236.8985 0001757  95.8898 264.2437 13.21825391176412"},{"id":"54666","name":"ONEWEB-0602","type":"PAYLOAD","l1":"1 54666U 22166AA  26203.80357722  .00000057  00000-0  10662-3 0  9991","l2":"2 54666  87.9226 236.9110 0002005 101.4867 258.6492 13.21824374176251"},{"id":"54667","name":"ONEWEB-0603","type":"PAYLOAD","l1":"1 54667U 22166AB  26203.80946143  .00000041  00000-0  67062-4 0  9993","l2":"2 54667  87.9237 236.8707 0002016  96.4231 263.7133 13.21824147176184"},{"id":"54668","name":"ONEWEB-0604","type":"PAYLOAD","l1":"1 54668U 22166AC  26203.79768540  .00000033  00000-0  47727-4 0  9992","l2":"2 54668  87.9238 236.8888 0002125  95.8086 264.3291 13.21824487176143"},{"id":"54669","name":"ONEWEB-0605","type":"PAYLOAD","l1":"1 54669U 22166AD  26203.10968879  .00000023  00000-0  23806-4 0  9996","l2":"2 54669  87.9226 237.0356 0001702  79.9841 280.1485 13.21824507176128"},{"id":"54670","name":"ONEWEB-0606","type":"PAYLOAD","l1":"1 54670U 22166AE  26203.81282256  .00000083  00000-0  17005-3 0  9993","l2":"2 54670  87.9228 236.9085 0002195  97.7154 262.4229 13.21825699176279"},{"id":"54671","name":"ONEWEB-0607","type":"PAYLOAD","l1":"1 54671U 22166AF  26203.32501336 -.00000068  00000-0 -19564-3 0  9990","l2":"2 54671  87.9236 236.9793 0001929  97.0269 263.1085 13.21825862176189"},{"id":"54672","name":"ONEWEB-0608","type":"PAYLOAD","l1":"1 54672U 22166AG  26203.33172867  .00000029  00000-0  37589-4 0  9998","l2":"2 54672  87.9241 236.9756 0001533  88.2580 271.8730 13.21824365176195"},{"id":"54673","name":"ONEWEB-0610","type":"PAYLOAD","l1":"1 54673U 22166AH  26203.53864520  .00000018  00000-0  10963-4 0  9990","l2":"2 54673  87.9225 236.9445 0001437  98.7647 261.3650 13.21825880176127"},{"id":"54674","name":"ONEWEB-0611","type":"PAYLOAD","l1":"1 54674U 22166AJ  26203.15341188 -.00000012  00000-0 -60873-4 0  9990","l2":"2 54674  87.9228 237.0174 0002217  96.9422 263.1964 13.21824308176065"},{"id":"54675","name":"ONEWEB-0612","type":"PAYLOAD","l1":"1 54675U 22166AK  26203.54536189 -.00000033  00000-0 -11097-3 0  9997","l2":"2 54675  87.9237 236.9384 0001901  94.2930 265.8422 13.21826536176109"},{"id":"54676","name":"ONEWEB-0615","type":"PAYLOAD","l1":"1 54676U 22166AL  26203.82796566  .00000064  00000-0  12256-3 0  9996","l2":"2 54676  87.9226 236.8939 0002288  98.7225 261.4168 13.21823801176154"},{"id":"54677","name":"ONEWEB-0655","type":"PAYLOAD","l1":"1 54677U 22166AM  26203.12315029  .00000047  00000-0  82953-4 0  9994","l2":"2 54677  87.9229 237.0351 0001962 100.9891 259.1464 13.21823985176057"},{"id":"54678","name":"ONEWEB-0659","type":"PAYLOAD","l1":"1 54678U 22166AN  26203.51845525  .00000143  00000-0  31385-3 0  9996","l2":"2 54678  87.9227 236.9557 0002018  93.0113 267.1252 13.21824907176198"},{"id":"54679","name":"ONEWEB-0685","type":"PAYLOAD","l1":"1 54679U 22166AP  26203.83335648  .00020448  00000-0  48726-1 0  9997","l2":"2 54679  87.9229 236.8839 0004289  85.2119 340.3119 13.22703159  5197"},{"id":"54680","name":"ONEWEB-0712","type":"PAYLOAD","l1":"1 54680U 22166AQ  26203.47458396 -.00000209  00000-0 -58019-3 0  9998","l2":"2 54680  87.9078 221.7653 0001949 106.5213 253.6132 13.16594449176700"},{"id":"54681","name":"ONEWEB-0714","type":"PAYLOAD","l1":"1 54681U 22166AR  26203.82629328  .00000042  00000-0  69161-4 0  9997","l2":"2 54681  87.9225 236.8841 0002137 103.4114 256.7258 13.21825548176242"},{"id":"55140","name":"ONEWEB-0532","type":"PAYLOAD","l1":"1 55140U 23004A   26203.87438003  .00000049  00000-0  92699-4 0  9992","l2":"2 55140  87.9155 358.7653 0001819  84.1690 275.9649 13.17648823172281"},{"id":"55141","name":"ONEWEB-0533","type":"PAYLOAD","l1":"1 55141U 23004B   26203.83145803  .00000334  00000-0  89214-3 0  9997","l2":"2 55141  87.8974 343.5843 0001651  99.0045 261.1271 13.12443226172739"},{"id":"55142","name":"ONEWEB-0541","type":"PAYLOAD","l1":"1 55142U 23004C   26203.43140635 -.00000431  00000-0 -12519-2 0  9995","l2":"2 55142  87.8897  14.0428 0001960  88.5318 271.6034 13.11417664170560"},{"id":"55143","name":"ONEWEB-0543","type":"PAYLOAD","l1":"1 55143U 23004D   26203.29468548  .00000077  00000-0  16324-3 0  9999","l2":"2 55143  87.9194 328.4876 0001968 105.7643 254.3706 13.18687334174324"},{"id":"55144","name":"ONEWEB-0544","type":"PAYLOAD","l1":"1 55144U 23004E   26203.74320309 -.00000006  00000-0 -49185-4 0  9998","l2":"2 55144  87.9196 328.3982 0002104 101.4541 258.6828 13.18684780174387"},{"id":"55145","name":"ONEWEB-0560","type":"PAYLOAD","l1":"1 55145U 23004F   26203.73646501 -.00000012  00000-0 -62611-4 0  9999","l2":"2 55145  87.9194 328.3890 0002128 103.5176 256.6194 13.18686216174398"},{"id":"55146","name":"ONEWEB-0565","type":"PAYLOAD","l1":"1 55146U 23004G   26203.35033775  .00000022  00000-0  23679-4 0  9991","l2":"2 55146  87.9185 328.4900 0002223  90.8514 269.2873 13.18685241174337"},{"id":"55147","name":"ONEWEB-0567","type":"PAYLOAD","l1":"1 55147U 23004H   26203.79884395  .00000008  00000-0 -13625-4 0  9997","l2":"2 55147  87.9194 328.3884 0002244  96.5910 263.5478 13.18684498174391"},{"id":"55148","name":"ONEWEB-0569","type":"PAYLOAD","l1":"1 55148U 23004J   26203.73542618 -.00000061  00000-0 -20130-3 0  9999","l2":"2 55148  87.8990 313.1493 0002801 106.1511 253.9927 13.13471016174844"},{"id":"55149","name":"ONEWEB-0570","type":"PAYLOAD","l1":"1 55149U 23004K   26203.33515795  .00000059  00000-0  11779-3 0  9996","l2":"2 55149  87.9194 328.4779 0001893  85.6944 274.4405 13.18685201174329"},{"id":"55150","name":"ONEWEB-0571","type":"PAYLOAD","l1":"1 55150U 23004L   26203.78368462 -.00000022  00000-0 -89263-4 0  9990","l2":"2 55150  87.9193 328.3884 0003142  93.6372 266.5120 13.18685709174395"}]}